NOAA 15                 
1 25338U 98030A   24066.55315747  .00000293  00000+0  13948-3 0  9997
2 25338  98.5810  95.7721 0009243 263.4500  96.5629 14.26507052342551
DMSP 5D-3 F16 (USA 172) 
1 28054U 03048A   24066.62712885  .00000284  00000+0  17342-3 0  9994
2 28054  99.0230  72.1293 0007062 351.9295 117.9109 14.13963074 51807
NOAA 18                 
1 28654U 05018A   24066.54564940  .00000303  00000+0  18587-3 0  9991
2 28654  98.8811 144.3474 0013952 358.3655   1.7470 14.13137824968673
METEOSAT-9 (MSG-2)      
1 28912U 05049B   24066.51494017  .00000126  00000+0  00000+0 0  9996
2 28912   7.4492  61.7065 0001137 348.9918 345.0922  1.00269961 66695
EWS-G1 (GOES 13)        
1 29155U 06018A   24066.42112983 -.00000164  00000+0  00000+0 0  9995
2 29155   2.3552  86.4955 0088076 251.2893 273.6665  0.99154371 35010
DMSP 5D-3 F17 (USA 191) 
1 29522U 06050A   24066.61568577  .00000298  00000+0  17832-3 0  9996
2 29522  98.7493  79.2916 0008856 272.2077  87.8082 14.14409056894693
FENGYUN 3A              
1 32958U 08026A   24066.44267497  .00000255  00000+0  14249-3 0  9998
2 32958  98.5925  16.6000 0009051  16.4056 343.7412 14.19027529817276
FENGYUN 2E              
1 33463U 08066A   24066.52294625 -.00000200  00000+0  00000+0 0  9993
2 33463   7.3154  61.0403 0001621 310.7109  67.5529  1.00263780 55759
NOAA 19                 
1 33591U 09005A   24066.55361099  .00000265  00000+0  16698-3 0  9996
2 33591  99.0617 121.2122 0013345 218.2874 141.7351 14.12940546776877
GOES 14                 
1 35491U 09033A   24066.47242536 -.00000069  00000+0  00000+0 0  9992
2 35491   0.0959 131.8837 0002234 267.8507 186.6069  1.00270227 53762
DMSP 5D-3 F18 (USA 210) 
1 35951U 09057A   24066.52485655  .00000445  00000+0  25672-3 0  9999
2 35951  98.8039  43.3162 0012274  97.8465 262.4101 14.14017296741874
EWS-G2 (GOES 15)        
1 36411U 10008A   24066.01611855  .00000038  00000+0  00000+0 0  9998
2 36411   0.0376 113.4647 0003324 174.4735 303.3434  1.00270277 51284
COMS 1                  
1 36744U 10032A   24066.53130042 -.00000347  00000+0  00000+0 0  9999
2 36744   2.6634  85.9849 0000894 278.3263 119.8391  1.00270678 42742
FENGYUN 3B              
1 37214U 10059A   24066.64890816  .00000182  00000+0  11885-3 0  9998
2 37214  99.0671  93.2579 0022538  24.9357  82.3656 14.14452978689712
SUOMI NPP               
1 37849U 11061A   24066.55823550  .00000168  00000+0  10022-3 0  9993
2 37849  98.7319   6.1271 0000845 106.3465 253.7804 14.19565806640317
FENGYUN 2F              
1 38049U 12002A   24066.52808058 -.00000359  00000+0  00000+0 0  9999
2 38049   5.3371  74.1354 0003520  28.7662   4.0509  1.00266579 44530
METEOSAT-10 (MSG-3)     
1 38552U 12035B   24066.57737802 -.00000009  00000+0  00000+0 0  9999
2 38552   2.7337  60.0424 0001756 298.5938  14.0109  1.00271194 42507
METOP-B                 
1 38771U 12049A   24066.54851119  .00000211  00000+0  11618-3 0  9997
2 38771  98.6414 126.0148 0000832  64.5829 295.5434 14.21481123594972
FENGYUN 3C              
1 39260U 13052A   24066.58003956  .00000179  00000+0  11118-3 0  9996
2 39260  98.4294  71.6288 0009908 262.4284  97.5766 14.16157048540741
METEOR-M 2              
1 40069U 14037A   24066.57536924  .00000247  00000+0  13324-3 0  9991
2 40069  98.4343  65.4181 0004709 303.9061  56.1668 14.20903705501053
HIMAWARI-8              
1 40267U 14060A   24066.52063403 -.00000279  00000+0  00000+0 0  9998
2 40267   0.0353 218.7093 0000934 151.9197 122.1774  1.00270326 34418
FENGYUN 2G              
1 40367U 14090A   24066.52564396 -.00000304  00000+0  00000+0 0  9998
2 40367   3.5253  82.7067 0001758  37.0223 333.9254  1.00266007 33656
METEOSAT-11 (MSG-4)     
1 40732U 15034A   24066.57929251  .00000059  00000+0  00000+0 0  9999
2 40732   1.1414  65.9539 0001402 227.2394  89.4521  1.00266212 31667
ELEKTRO-L 2             
1 41105U 15074A   24066.43131146 -.00000118  00000+0  00000+0 0  9998
2 41105   4.5774  80.6916 0002412 215.4711   9.2785  1.00271714 30153
HIMAWARI-9              
1 41836U 16064A   24066.52063403 -.00000278  00000+0  00000+0 0  9996
2 41836   0.0253 139.6532 0001145 251.7823 101.5002  1.00268960 26865
GOES 16                 
1 41866U 16071A   24066.56241014 -.00000251  00000+0  00000+0 0  9998
2 41866   0.0768 276.1231 0000974 114.5503 261.3536  1.00271393 26751
FENGYUN 4A              
1 41882U 16077A   24066.52616609 -.00000230  00000+0  00000+0 0  9991
2 41882   0.1950  78.9776 0003985 318.3025  59.0993  0.99773563 26586
CYGFM05                 
1 41884U 16078A   24066.54923427  .00010028  00000+0  39674-3 0  9993
2 41884  34.9512 229.6860 0013415 340.7024  19.3181 15.24603288400396
CYGFM04                 
1 41885U 16078B   24066.53142928  .00010495  00000+0  40507-3 0  9997
2 41885  34.9461 214.8083 0010905   5.1909 354.8917 15.25446529400475
CYGFM02                 
1 41886U 16078C   24066.51026502  .00014841  00000+0  56804-3 0  9991
2 41886  34.9532 217.4148 0012888 356.3454   3.7165 15.25648113400551
CYGFM01                 
1 41887U 16078D   24066.51240019  .00009464  00000+0  37759-3 0  9996
2 41887  34.9489 233.5022 0013479 339.4766  20.5405 15.24330503400327
CYGFM08                 
1 41888U 16078E   24066.52769047  .00010090  00000+0  39353-3 0  9994
2 41888  34.9446 222.5291 0012991 355.1289   4.9298 15.25080142400496
CYGFM07                 
1 41890U 16078G   24066.52799426  .00010623  00000+0  40886-3 0  9996
2 41890  34.9485 214.3122 0010532   3.0444 357.0333 15.25541065400482
CYGFM03                 
1 41891U 16078H   24066.55774149  .00010082  00000+0  38881-3 0  9996
2 41891  34.9505 215.2092 0010869 354.0418   6.0166 15.25480755400477
FENGYUN 3D              
1 43010U 17072A   24066.59437753  .00000193  00000+0  11332-3 0  9991
2 43010  98.8986  20.7184 0000448 286.9686  73.1440 14.19293737326861
NOAA 20                 
1 43013U 17073A   24066.52298547  .00000154  00000+0  93878-4 0  9997
2 43013  98.7398   6.0906 0001698  88.3723 271.7647 14.19554370326333
GOES 17                 
1 43226U 18022A   24066.57885285 -.00000094  00000+0  00000+0 0  9998
2 43226   0.0209 327.9931 0001135 356.2246 304.2510  1.00271171 22078
FENGYUN 2H              
1 43491U 18050A   24066.52155389 -.00000129  00000+0  00000+0 0  9992
2 43491   0.8749  88.0421 0001340 341.5176   1.9889  1.00267242 21089
METOP-C                 
1 43689U 18087A   24066.58516483  .00000207  00000+0  11453-3 0  9997
2 43689  98.6933 127.1843 0002735  38.6458 321.4915 14.21493024276546
GEO-KOMPSAT-2A          
1 43823U 18100A   24065.93521684 -.00000345  00000+0  00000+0 0  9996
2 43823   0.0329  38.4815 0001617  16.8692 213.7269  1.00270844 19277
METEOR-M2 2             
1 44387U 19038A   24066.55563234  .00000101  00000+0  63563-4 0  9996
2 44387  98.8152  35.4407 0000227 217.9006 142.2156 14.23857710242782
ARKTIKA-M 1             
1 47719U 21016A   24055.10107533  .00000105  00000+0  00000+0 0  9998
2 47719  63.1384 164.7121 6909327 268.9660  18.0999  2.00602671 21856
FENGYUN 3E              
1 49008U 21062A   24066.59516056  .00000076  00000+0  56511-4 0  9991
2 49008  98.7326  69.2526 0001345  11.9953 348.1255 14.19733391138437
GOES 18                 
1 51850U 22021A   24066.57027212  .00000094  00000+0  00000+0 0  9991
2 51850   0.0214 321.0953 0000263  15.0841 256.8773  1.00271143  7421
NOAA 21 (JPSS-2)        
1 54234U 22150A   24066.53960696  .00000177  00000+0  10490-3 0  9991
2 54234  98.7432   5.6836 0001635  82.3599 277.7762 14.19525384 68411
METEOSAT-12 (MTG-I1)    
1 54743U 22170C   24066.29090083 -.00000008  00000+0  00000+0 0  9991
2 54743   0.3935  11.5560 0000464  54.4996 202.8755  1.00274943  4625
TIANMU-1 03             
1 55973U 23039A   24066.58851064  .00011085  00000+0  46154-3 0  9998
2 55973  97.4538 217.6474 0013553 108.7792 251.4917 15.23826783 53225
TIANMU-1 04             
1 55974U 23039B   24066.57072284  .00011923  00000+0  49705-3 0  9993
2 55974  97.4458 217.3009 0010571 107.9833 252.2557 15.23799889 53216
TIANMU-1 05             
1 55975U 23039C   24066.55629986  .00012025  00000+0  50176-3 0  9997
2 55975  97.4508 217.5429 0006751 102.2171 257.9823 15.23797675 53207
TIANMU-1 06             
1 55976U 23039D   24066.60630494  .00011149  00000+0  46558-3 0  9995
2 55976  97.4522 217.6895 0006255 103.7319 256.4615 15.23793711 53212
METEOR-M2 3             
1 57166U 23091A   24066.59142457  .00000042  00000+0  37548-4 0  9991
2 57166  98.7274 122.1220 0005016  73.8024 286.3706 14.23874701 36020
TIANMU-1 07             
1 57399U 23101A   24066.54960182  .00005917  00000+0  31408-3 0  9993
2 57399  97.3776 126.6321 0004999 168.5945 191.5402 15.15688700 34879
TIANMU-1 08             
1 57400U 23101B   24066.51847566  .00006697  00000+0  35509-3 0  9995
2 57400  97.3764 126.4906 0007343 177.4700 182.6571 15.15670009 34860
TIANMU-1 09             
1 57401U 23101C   24066.50020686  .00006728  00000+0  35678-3 0  9993
2 57401  97.3721 126.3784 0007703 173.8834 186.2494 15.15661303 34866
TIANMU-1 10             
1 57402U 23101D   24066.59761555  .00006362  00000+0  33736-3 0  9997
2 57402  97.3799 126.6424 0009924 177.4078 182.7208 15.15665629 34873
FENGYUN 3F              
1 57490U 23111A   24066.55346009  .00000130  00000+0  82323-4 0  9998
2 57490  98.7802 136.5927 0001554  66.8071 293.3269 14.19774756 30702
TIANMU-1 11             
1 58645U 23205A   24066.58751482  .00005439  00000+0  29927-3 0  9990
2 58645  97.4155  94.3345 0012268  35.4375 324.7670 15.14398361 10983
TIANMU-1 12             
1 58646U 23205B   24066.59739578  .00005845  00000+0  32338-3 0  9995
2 58646  97.4141  94.3078 0010974  33.6227 326.5699 15.14183386 10979
TIANMU-1 13             
1 58647U 23205C   24066.55275383  .00006571  00000+0  36811-3 0  9998
2 58647  97.4170  94.2441 0010959  26.4877 333.6913 15.13692735 10968
TIANMU-1 14             
1 58648U 23205D   24066.60241701  .00005961  00000+0  33432-3 0  9990
2 58648  97.4097  94.2582 0011341  26.9122 333.2696 15.13680323 10972
TIANMU-1 19             
1 58660U 23208A   24066.60652569  .00007982  00000+0  44656-3 0  9990
2 58660  97.3997 181.7434 0011364   8.3487 351.7932 15.13666259 10649
TIANMU-1 20             
1 58661U 23208B   24066.58505810  .00007343  00000+0  40683-3 0  9991
2 58661  97.3927 181.7007 0010759  18.2129 341.9486 15.14048793 10642
TIANMU-1 21             
1 58662U 23208C   24066.56678878  .00007417  00000+0  40254-3 0  9991
2 58662  97.3965 181.7645 0010462  19.0260 341.1361 15.14781874 10647
TIANMU-1 22             
1 58663U 23208D   24066.55779793  .00006663  00000+0  37331-3 0  9993
2 58663  97.3981 181.7909 0006913  25.3402 334.8167 15.13711366 10644
TIANMU-1 15             
1 58700U 24004A   24066.53285014  .00006779  00000+0  37941-3 0  9991
2 58700  97.4601 249.6392 0011409  50.3618 309.8619 15.13711535  9234
TIANMU-1 16             
1 58701U 24004B   24066.58271355  .00007255  00000+0  40586-3 0  9999
2 58701  97.4528 249.6652 0011408  57.0681 303.1646 15.13703698  9244
TIANMU-1 17             
1 58702U 24004C   24066.56656906  .00006616  00000+0  37078-3 0  9999
2 58702  97.4575 249.7224 0008836  53.5241 306.6803 15.13694048  9237
TIANMU-1 18             
1 58703U 24004D   24066.54990441  .00005849  00000+0  32863-3 0  9997
2 58703  97.4587 249.7564 0008030  46.1837 314.0057 15.13654886  9233
METEOR-M2 4             
1 59051U 24039A   24066.56055554  .00000252  00000+0  13309-3 0  9998
2 59051  98.5852  31.0485 0008164  66.1045 294.0988 14.22194308   904
